{
  "norad_id": 68140,
  "name": "SHIYAN-30 04",
  "history": [
    {
      "epoch": "2026-03-28T21:57:17.347968",
      "apogee_km": 593.7070921983832,
      "perigee_km": 591.3557463271982,
      "latitude_deg": -12.36273667139744,
      "longitude_deg": 1.8192755200434476,
      "semi_major_axis_km": 6970.668419262791,
      "eccentricity": 0.00016866,
      "inclination_deg": 34.9927,
      "raan_deg": 28.8506,
      "arg_perigee_deg": 354.9978,
      "mean_anomaly_deg": 5.071,
      "mean_motion_rev_day": 14.91733095
    }
  ]
}